{
  "norad_id": 68716,
  "name": "STARLINK-36337",
  "history": [
    {
      "epoch": "2026-04-23T16:57:22.075200Z",
      "apogee_km": 317.2607955839003,
      "perigee_km": 311.89310514143017,
      "latitude_deg": 4.3240640633026424e-05,
      "longitude_deg": 89.10796694598687,
      "height_km": 313.0203855060164,
      "semi_major_axis_km": 6692.713950362665,
      "eccentricity": 0.00040101,
      "inclination_deg": 53.1594,
      "raan_deg": 195.1998,
      "arg_perigee_deg": 22.7121,
      "mean_anomaly_deg": 337.4081,
      "mean_motion_rev_day": 15.85620919
    },
    {
      "epoch": "2026-04-25T08:00:01.999008Z",
      "apogee_km": 328.6824971454744,
      "perigee_km": 327.1763146307112,
      "latitude_deg": -53.263406434039425,
      "longitude_deg": 127.17870298105103,
      "height_km": 347.15443281998125,
      "semi_major_axis_km": 6706.066405888092,
      "eccentricity": 0.0001123,
      "inclination_deg": 53.1601,
      "raan_deg": 187.032,
      "arg_perigee_deg": 76.543,
      "mean_anomaly_deg": 195.5708,
      "mean_motion_rev_day": 15.8088758
    },
    {
      "epoch": "2026-04-26T16:14:02.183424Z",
      "apogee_km": 328.54247965946706,
      "perigee_km": 326.6558878415308,
      "latitude_deg": 5.395878007989578e-06,
      "longitude_deg": 82.11414449569239,
      "height_km": 328.51394985552474,
      "semi_major_axis_km": 6705.736183750499,
      "eccentricity": 0.00014067,
      "inclination_deg": 53.1593,
      "raan_deg": 180.3004,
      "arg_perigee_deg": 89.8323,
      "mean_anomaly_deg": 270.2861,
      "mean_motion_rev_day": 15.81004357
    },
    {
      "epoch": "2026-04-27T20:00:03.000384Z",
      "apogee_km": 328.7518123465261,
      "perigee_km": 327.21342850560086,
      "latitude_deg": 49.60555666793604,
      "longitude_deg": 137.56631284966616,
      "height_km": 332.9572754246826,
      "semi_major_axis_km": 6706.119620426063,
      "eccentricity": 0.0001147,
      "inclination_deg": 53.1593,
      "raan_deg": 174.5035,
      "arg_perigee_deg": 91.0252,
      "mean_anomaly_deg": 17.2586,
      "mean_motion_rev_day": 15.80868763
    },
    {
      "epoch": "2026-04-28T20:00:01.000224Z",
      "apogee_km": 328.63877559721277,
      "perigee_km": 327.4289823706431,
      "latitude_deg": 32.90264725293768,
      "longitude_deg": 41.501199228100724,
      "height_km": 329.72789325928227,
      "semi_major_axis_km": 6706.170878983928,
      "eccentricity": 9.02e-05,
      "inclination_deg": 53.159,
      "raan_deg": 169.4921,
      "arg_perigee_deg": 77.3725,
      "mean_anomaly_deg": 325.2271,
      "mean_motion_rev_day": 15.80850638
    },
    {
      "epoch": "2026-04-29T20:05:51.062784Z",
      "apogee_km": 328.8987322421917,
      "perigee_km": 326.39211077303116,
      "latitude_deg": 1.7671403348609425e-06,
      "longitude_deg": 5.204373292294498,
      "height_km": 328.20645509377937,
      "semi_major_axis_km": 6705.782421507611,
      "eccentricity": 0.0001869,
      "inclination_deg": 53.1585,
      "raan_deg": 164.4599,
      "arg_perigee_deg": 73.5046,
      "mean_anomaly_deg": 286.6182,
      "mean_motion_rev_day": 15.80988005
    },
    {
      "epoch": "2026-04-30T14:18:16.012224Z",
      "apogee_km": 328.7791244839482,
      "perigee_km": 326.49473553695134,
      "latitude_deg": 7.936568785616525e-06,
      "longitude_deg": 87.55078958883256,
      "height_km": 328.5624358565969,
      "semi_major_axis_km": 6705.7739300104495,
      "eccentricity": 0.00017033,
      "inclination_deg": 53.1584,
      "raan_deg": 160.658,
      "arg_perigee_deg": 90.4264,
      "mean_anomaly_deg": 269.6954,
      "mean_motion_rev_day": 15.80991008
    },
    {
      "epoch": "2026-05-02T10:18:20.065824Z",
      "apogee_km": 328.4949708038175,
      "perigee_km": 327.05856407483225,
      "latitude_deg": 3.173468881758714e-05,
      "longitude_deg": 136.5386527947927,
      "height_km": 328.9140188007828,
      "semi_major_axis_km": 6705.913767439325,
      "eccentricity": 0.0001071,
      "inclination_deg": 53.1575,
      "raan_deg": 151.4698,
      "arg_perigee_deg": 107.7897,
      "mean_anomaly_deg": 252.3243,
      "mean_motion_rev_day": 15.80941556
    },
    {
      "epoch": "2026-05-03T13:36:58.163904Z",
      "apogee_km": 328.52407357044285,
      "perigee_km": 326.9307601849923,
      "latitude_deg": 9.901692223890761e-06,
      "longitude_deg": 80.05518576872244,
      "height_km": 328.78074990765884,
      "semi_major_axis_km": 6705.864416877717,
      "eccentricity": 0.0001188,
      "inclination_deg": 53.1575,
      "raan_deg": 145.7667,
      "arg_perigee_deg": 99.8075,
      "mean_anomaly_deg": 260.3082,
      "mean_motion_rev_day": 15.80959008
    },
    {
      "epoch": "2026-05-04T18:26:39.793632Z",
      "apogee_km": 328.94112355765174,
      "perigee_km": 326.24273823585827,
      "latitude_deg": 3.533959176606698e-05,
      "longitude_deg": 0.4275101172209969,
      "height_km": 328.6164203216736,
      "semi_major_axis_km": 6705.728930896755,
      "eccentricity": 0.0002012,
      "inclination_deg": 53.1573,
      "raan_deg": 139.7464,
      "arg_perigee_deg": 94.5931,
      "mean_anomaly_deg": 265.5322,
      "mean_motion_rev_day": 15.81006922
    },
    {
      "epoch": "2026-05-05T14:10:05.940192Z",
      "apogee_km": 327.9630570609306,
      "perigee_km": 327.2227444798855,
      "latitude_deg": -9.938505739507554e-06,
      "longitude_deg": 59.63929627439451,
      "height_km": 328.8396391338266,
      "semi_major_axis_km": 6705.729900770408,
      "eccentricity": 5.52e-05,
      "inclination_deg": 53.157,
      "raan_deg": 135.6272,
      "arg_perigee_deg": 152.376,
      "mean_anomaly_deg": 207.7292,
      "mean_motion_rev_day": 15.81006579
    },
    {
      "epoch": "2026-05-06T12:55:40.787328Z",
      "apogee_km": 328.7420749495004,
      "perigee_km": 326.7590098854571,
      "latitude_deg": 1.485453579694473e-05,
      "longitude_deg": 72.55780787750605,
      "height_km": 327.90128057092096,
      "semi_major_axis_km": 6705.8875424174785,
      "eccentricity": 0.00014786,
      "inclination_deg": 53.1575,
      "raan_deg": 130.8756,
      "arg_perigee_deg": 39.3061,
      "mean_anomaly_deg": 320.8069,
      "mean_motion_rev_day": 15.8095083
    },
    {
      "epoch": "2026-05-07T20:47:25.434240Z",
      "apogee_km": 328.36616730863443,
      "perigee_km": 326.9954981436258,
      "latitude_deg": -6.333277808574785e-05,
      "longitude_deg": -53.33992627874015,
      "height_km": 328.07390356020454,
      "semi_major_axis_km": 6705.81783272613,
      "eccentricity": 0.0001022,
      "inclination_deg": 53.1574,
      "raan_deg": 124.2225,
      "arg_perigee_deg": 39.966,
      "mean_anomaly_deg": 320.1437,
      "mean_motion_rev_day": 15.80975482
    },
    {
      "epoch": "2026-05-08T19:32:56.461632Z",
      "apogee_km": 328.16316565212855,
      "perigee_km": 327.3209072451509,
      "latitude_deg": 2.0390333066307966e-06,
      "longitude_deg": -40.407024391712376,
      "height_km": 328.988353742374,
      "semi_major_axis_km": 6705.879036448639,
      "eccentricity": 6.28e-05,
      "inclination_deg": 53.1573,
      "raan_deg": 119.4693,
      "arg_perigee_deg": 141.0915,
      "mean_anomaly_deg": 219.0153,
      "mean_motion_rev_day": 15.80953838
    },
    {
      "epoch": "2026-05-09T18:18:30.512160Z",
      "apogee_km": 328.5404630587627,
      "perigee_km": 327.097341348609,
      "latitude_deg": -3.5879389828733326e-05,
      "longitude_deg": -27.48592961285292,
      "height_km": 329.31611277006215,
      "semi_major_axis_km": 6705.955902203686,
      "eccentricity": 0.0001076,
      "inclination_deg": 53.1577,
      "raan_deg": 114.717,
      "arg_perigee_deg": 143.3459,
      "mean_anomaly_deg": 216.7637,
      "mean_motion_rev_day": 15.80926656
    },
    {
      "epoch": "2026-05-10T18:35:04.684992Z",
      "apogee_km": 328.4529695854726,
      "perigee_km": 327.2968531319548,
      "latitude_deg": 6.340099149782892e-05,
      "longitude_deg": -37.694830124988734,
      "height_km": 329.30686768423357,
      "semi_major_axis_km": 6706.011911358713,
      "eccentricity": 8.62e-05,
      "inclination_deg": 53.1574,
      "raan_deg": 109.6474,
      "arg_perigee_deg": 152.633,
      "mean_anomaly_deg": 207.4739,
      "mean_motion_rev_day": 15.8090685
    },
    {
      "epoch": "2026-05-11T06:43:21.996480Z",
      "apogee_km": 328.4320884916451,
      "perigee_km": 327.208385415046,
      "latitude_deg": 5.042700983839385e-05,
      "longitude_deg": 137.2000329667979,
      "height_km": 329.0221497142558,
      "semi_major_axis_km": 6705.957236953345,
      "eccentricity": 9.124e-05,
      "inclination_deg": 53.1572,
      "raan_deg": 107.1129,
      "arg_perigee_deg": 117.6407,
      "mean_anomaly_deg": 242.4709,
      "mean_motion_rev_day": 15.80926184
    },
    {
      "epoch": "2026-05-12T20:00:01.999008Z",
      "apogee_km": 341.51218875016184,
      "perigee_km": 340.0071558955624,
      "latitude_deg": -13.085955180157328,
      "longitude_deg": 118.70559115871873,
      "height_km": 344.1558260535562,
      "semi_major_axis_km": 6718.896672322862,
      "eccentricity": 0.000112,
      "inclination_deg": 53.159,
      "raan_deg": 99.3437,
      "arg_perigee_deg": 115.9303,
      "mean_anomaly_deg": 80.2931,
      "mean_motion_rev_day": 15.76361497
    },
    {
      "epoch": "2026-05-13T20:00:01.999008Z",
      "apogee_km": 353.4632521908952,
      "perigee_km": 351.9380443797945,
      "latitude_deg": 50.145257679981306,
      "longitude_deg": 39.60206601224158,
      "height_km": 357.78906773417134,
      "semi_major_axis_km": 6730.837648285345,
      "eccentricity": 0.0001133,
      "inclination_deg": 53.1594,
      "raan_deg": 94.3791,
      "arg_perigee_deg": 95.3045,
      "mean_anomaly_deg": 11.5367,
      "mean_motion_rev_day": 15.72168495
    },
    {
      "epoch": "2026-05-14T06:00:02.000160Z",
      "apogee_km": 358.5634188254653,
      "perigee_km": 357.0219686743476,
      "latitude_deg": -41.085226876770065,
      "longitude_deg": 89.8063751946124,
      "height_km": 372.1233187575023,
      "semi_major_axis_km": 6735.929693749906,
      "eccentricity": 0.00011442,
      "inclination_deg": 53.1592,
      "raan_deg": 92.3228,
      "arg_perigee_deg": 104.7919,
      "mean_anomaly_deg": 200.349,
      "mean_motion_rev_day": 15.70386104
    },
    {
      "epoch": "2026-05-15T06:00:02.000160Z",
      "apogee_km": 370.75654637361185,
      "perigee_km": 368.8762966322438,
      "latitude_deg": -11.569681973663913,
      "longitude_deg": -46.81691133071877,
      "height_km": 373.2472717394392,
      "semi_major_axis_km": 6747.953421502928,
      "eccentricity": 0.00013932,
      "inclination_deg": 53.16,
      "raan_deg": 87.403,
      "arg_perigee_deg": 85.5767,
      "mean_anomaly_deg": 108.7345,
      "mean_motion_rev_day": 15.66190725
    },
    {
      "epoch": "2026-05-16T20:00:01.999008Z",
      "apogee_km": 389.61621439608825,
      "perigee_km": 388.2546794197706,
      "latitude_deg": 49.76675733391508,
      "longitude_deg": 23.414635776261797,
      "height_km": 394.012829414767,
      "semi_major_axis_km": 6767.07244690793,
      "eccentricity": 0.0001006,
      "inclination_deg": 53.1605,
      "raan_deg": 79.6745,
      "arg_perigee_deg": 102.3053,
      "mean_anomaly_deg": 5.5601,
      "mean_motion_rev_day": 15.59557972
    }
  ]
}